[{"OBJECT_NAME":"STARLINK-3399","OBJECT_ID":"2022-005T","EPOCH":"2026-03-09T20:51:46.344096","MEAN_MOTION":15.08839443,"ECCENTRICITY":0.00014382,"INCLINATION":53.2172,"RA_OF_ASC_NODE":288.3271,"ARG_OF_PERICENTER":86.3831,"MEAN_ANOMALY":273.7326,"EPHEMERIS_TYPE":0,"CLASSIFICATION_TYPE":"U","NORAD_CAT_ID":51121,"ELEMENT_SET_NO":999,"REV_AT_EPOCH":22890,"BSTAR":3.839666e-6,"MEAN_MOTION_DOT":-2.27e-6,"MEAN_MOTION_DDOT":0},{"OBJECT_NAME":"OBJECT C","OBJECT_ID":"2025-108C","EPOCH":"2026-03-09T22:37:32.676384","MEAN_MOTION":15.13945167,"ECCENTRICITY":0.00134886,"INCLINATION":97.4753,"RA_OF_ASC_NODE":145.0046,"ARG_OF_PERICENTER":355.6312,"MEAN_ANOMALY":4.48,"EPHEMERIS_TYPE":0,"CLASSIFICATION_TYPE":"U","NORAD_CAT_ID":64089,"ELEMENT_SET_NO":999,"REV_AT_EPOCH":4425,"BSTAR":0.00040295487,"MEAN_MOTION_DOT":7.256e-5,"MEAN_MOTION_DDOT":0}]
